GOES 1 (SMS-C) [-]      
1 08366U 75100A   17252.28415998 -.00000227  00000-0  00000-0 0  9991
2 08366  11.9129 317.5024 0005875 273.6477 135.8151  1.00250451153091
GOES 2 [-]              
1 10061U 77048A   17249.27004411 -.00000272  00000-0  00000-0 0  9998
2 10061  13.1672 326.6464 0016319 316.1153 318.5021  0.99402268 91641
GOES 3 [-]              
1 10953U 78062A   17252.39906628  .00000057  00000-0  00000-0 0  9993
2 10953  13.3159 330.2113 0003701 276.8531 123.6970  0.99357982 96777
GOES 4 [-]              
1 11964U 80074A   17252.60312272  .00000060  00000-0  00000-0 0  9996
2 11964  14.0978 333.9429 0031331  12.7542 266.1567  0.99228400 95659
GOES 5 [-]              
1 12472U 81049A   17251.34323906 -.00000276  00000-0  00000-0 0  9990
2 12472  14.3011 344.1696 0005662 246.9366 167.6456  1.00238738 90833
GOES 6 [-]              
1 14050U 83041A   17250.73032066 -.00000257  00000-0  00000-0 0  9993
2 14050  14.5382 349.0551 0003439 220.3357 322.4622  1.00249016183920
GOES 7 [-]              
1 17561U 87022A   17251.86507581  .00000025  00000-0  00000-0 0  9992
2 17561  15.1462   4.9326 0004711 287.2818  74.1729  0.99889470 94977
GOES 8 [-]              
1 23051U 94022A   17252.32476687 -.00000167  00000-0  00000-0 0  9993
2 23051  11.4922  38.0981 0007460 226.6726 138.6805  0.98905042 92446
GOES 9 [-]              
1 23581U 95025A   17252.27410479 -.00000274  00000-0  00000-0 0  9995
2 23581  10.9906  37.5711 0003684 133.2437  58.5574  0.98802490 81119
GOES 10 [-]             
1 24786U 97019A   17252.30316038 -.00000218  00000-0  00000-0 0  9996
2 24786   9.3789  42.3504 0030816 165.6140 194.5824  0.99123773 74313
GOES 11 [-]             
1 26352U 00022A   17252.31007962 -.00000239  00000-0  00000-0 0  9992
2 26352   5.1206  73.1672 0005830 148.9277 195.3874  0.99043998 63270
GOES 12 [-]             
1 26871U 01031A   17252.25544317 -.00000203  00000-0  00000-0 0  9993
2 26871   6.4803  59.3814 0009133 223.6239 152.4237  0.99140575 58984
GOES 13 [+]             
1 29155U 06018A   17252.24151017 -.00000263  00000-0  00000-0 0  9997
2 29155   0.0220 142.8895 0003527 327.0699 250.0913  1.00283194 41405
GOES 14 [S]             
1 35491U 09033A   17252.32198203 -.00000106  00000-0  00000-0 0  9990
2 35491   0.3737 274.1942 0009752 301.1557 144.5980  1.00273677 30049
GOES 15 [+]             
1 36411U 10008A   17252.40684565  .00000075  00000-0  00000-0 0  9991
2 36411   0.3471 276.0917 0005142 259.1737 184.7517  1.00263524 27577
GOES 16 [S]             
1 41866U 16071A   17252.27994742 -.00000197  00000-0  00000-0 0  9999
2 41866   0.0025 144.7279 0000695  75.5281 139.7388  1.00269511  2990
